NORAD_CAT_ID,OBJECT_NAME,OBJECT_TYPE,EPOCH,MEAN_MOTION,ECCENTRICITY,INCLINATION,RA_OF_ASC_NODE,ARG_OF_PERICENTER,MEAN_ANOMALY,BSTAR,MEAN_MOTION_DOT,MEAN_MOTION_DDOT,TLE_LINE0,TLE_LINE1,TLE_LINE2,SEMIMAJOR_AXIS,PERIOD,APOGEE,PERIGEE,DECAYED
53550.0,STARLINK-4518,PAYLOAD,2024-06-22 18:21:28,15.08839256,0.0001218,53.2177,349.5199,89.1774,270.9357,6.3987e-05,7.31e-06,0.0,0 STARLINK-4518,1 53550U 22101Z   24174.76491379  .00000731  00000-0  63987-4 0  9996,2 53550  53.2177 349.5199 0001218  89.1774 270.9357 15.08839256101960,6917.883,95.438,540.59,538.905,0.0
53550.0,STARLINK-4518,PAYLOAD,2024-06-23 11:50:43,15.08841123,0.0001306,53.2183,346.2486,104.3083,255.8055,2.5885e-05,1.24e-06,0.0,0 STARLINK-4518,1 53550U 22101Z   24175.49355332  .00000124  00000-0  25885-4 0  9996,2 53550  53.2183 346.2486 0001306 104.3083 255.8055 15.08841123102730,6917.877,95.437,540.645,538.838,0.0
53550.0,STARLINK-4518,PAYLOAD,2024-06-23 18:12:15,15.08840974,0.0001296,53.2184,345.0592,103.9355,256.1781,2.1249e-05,5e-07,0.0,0 STARLINK-4518,1 53550U 22101Z   24175.75851322  .00000050  00000-0  21249-4 0  9993,2 53550  53.2184 345.0592 0001296 103.9355 256.1781 15.08840974102778,6917.877,95.437,540.639,538.846,0.0
53550.0,STARLINK-4518,PAYLOAD,2024-06-24 11:41:30,15.0883706,0.0001278,53.2186,341.789,99.3868,260.7269,4.3255e-05,4.01e-06,0.0,0 STARLINK-4518,1 53550U 22101Z   24176.48715539  .00000401  00000-0  43255-4 0  9994,2 53550  53.2186 341.7890 0001278  99.3868 260.7269 15.08837060102225,6917.889,95.438,540.638,538.87,0.0
53550.0,STARLINK-4518,PAYLOAD,2024-06-24 14:52:16,15.08836947,0.0001286,53.2186,341.1942,100.7319,259.3818,3.9657e-05,3.43e-06,0.0,0 STARLINK-4518,1 53550U 22101Z   24176.61963574  .00000343  00000-0  39657-4 0  9999,2 53550  53.2186 341.1942 0001286 100.7319 259.3818 15.08836947102906,6917.89,95.438,540.644,538.865,0.0
53550.0,STARLINK-4518,PAYLOAD,2024-06-24 18:03:02,15.08833373,0.0001447,53.218,340.5979,129.5661,230.5459,6.0398e-06,-1.92e-06,0.0,0 STARLINK-4518,1 53550U 22101Z   24176.75211798 -.00000192  00000-0  60398-5 0  9998,2 53550  53.2180 340.5979 0001447 129.5661 230.5459 15.08833373102925,6917.901,95.438,540.767,538.765,0.0
53550.0,STARLINK-4518,PAYLOAD,2024-06-25 14:43:03,15.08838455,0.0001255,53.2179,336.7303,103.9439,256.1693,3.3183e-05,2.4e-06,0.0,0 STARLINK-4518,1 53550U 22101Z   24177.61323786  .00000240  00000-0  33183-4 0  9999,2 53550  53.2179 336.7303 0001255 103.9439 256.1693 15.08838455103052,6917.885,95.438,540.618,538.882,0.0
53550.0,STARLINK-4518,PAYLOAD,2024-06-25 17:53:49,15.08839223,0.0001238,53.2179,336.1357,103.0971,257.0159,4.0328e-05,3.54e-06,0.0,0 STARLINK-4518,1 53550U 22101Z   24177.74571759  .00000354  00000-0  40328-4 0  9993,2 53550  53.2179 336.1357 0001238 103.0971 257.0159 15.08839223102418,6917.883,95.438,540.604,538.891,0.0
53550.0,STARLINK-4518,PAYLOAD,2024-06-26 03:26:08,15.08850284,0.0001168,53.2176,334.3555,87.8113,272.3013,0.00016889,2.402e-05,0.0,0 STARLINK-4518,1 53550U 22101Z   24178.14314824  .00002402  00000-0  16889-3 0  9996,2 53550  53.2176 334.3555 0001168  87.8113 272.3013 15.08850284102479,6917.849,95.437,540.522,538.906,0.0
53550.0,STARLINK-4518,PAYLOAD,2024-06-27 17:35:24,15.08843656,0.0001161,53.2173,327.2178,90.5849,269.5276,1.8828e-05,1.2e-07,0.0,0 STARLINK-4518,1 53550U 22101Z   24179.73291973  .00000012  00000-0  18828-4 0  9992,2 53550  53.2173 327.2178 0001161  90.5849 269.5276 15.08843656102719,6917.869,95.437,540.537,538.931,0.0
53550.0,STARLINK-4518,PAYLOAD,2024-06-28 03:07:42,15.08850572,0.0001144,53.2179,325.4345,116.8574,243.2535,5.103e-05,5.25e-06,0.0,0 STARLINK-4518,1 53550U 22101Z   24180.13035205  .00000525  00000-0  51030-4 0  9993,2 53550  53.2179 325.4345 0001144 116.8574 243.2535 15.08850572102777,6917.848,95.437,540.504,538.922,0.0
53550.0,STARLINK-4518,PAYLOAD,2024-06-28 14:15:24,15.08839541,0.0001204,53.2176,323.3509,87.0751,273.0379,9.5545e-05,1.233e-05,0.0,0 STARLINK-4518,1 53550U 22101Z   24180.59403876  .00001233  00000-0  95545-4 0  9992,2 53550  53.2176 323.3509 0001204  87.0751 273.0379 15.08839541103508,6917.882,95.438,540.58,538.914,0.0
53550.0,STARLINK-4518,PAYLOAD,2024-06-28 15:50:47,15.08840598,0.0001078,53.2157,323.0522,90.4978,269.6138,0.0001021,1.338e-05,0.0,0 STARLINK-4518,1 53550U 22101Z   24180.66027701  .00001338  00000-0  10210-3 0  9990,2 53550  53.2157 323.0522 0001078  90.4978 269.6138 15.08840598102852,6917.879,95.438,540.489,538.998,0.0
53550.0,STARLINK-4518,PAYLOAD,2024-06-29 02:58:28,15.08860923,0.0001347,53.2182,320.9737,86.5093,273.6054,0.00021136,3.079e-05,0.0,0 STARLINK-4518,1 53550U 22101Z   24181.12393949  .00003079  00000-0  21136-3 0  9995,2 53550  53.2182 320.9737 0001347  86.5093 273.6054 15.08860923102921,6917.816,95.436,540.613,538.75,0.0
53550.0,STARLINK-4518,PAYLOAD,2024-06-29 09:20:01,15.08822317,0.0003131,53.2172,319.7829,94.0844,266.0506,0.00059992,9.268e-05,0.0,0 STARLINK-4518,1 53550U 22101Z   24181.38891058  .00009268  00000-0  59992-3 0  9994,2 53550  53.2172 319.7829 0003131  94.0844 266.0506 15.08822317102966,6917.934,95.439,541.965,537.633,0.0
53550.0,STARLINK-4518,PAYLOAD,2024-06-29 14:06:13,15.08823794,0.0001562,53.2183,318.8926,96.0683,264.0487,-0.00011932,-2.186e-05,0.0,0 STARLINK-4518,1 53550U 22101Z   24181.58765409 -.00002186  00000-0 -11932-3 0  9992,2 53550  53.2183 318.8926 0001562  96.0683 264.0487 15.08823794103658,6917.93,95.439,540.876,538.714,0.0
53550.0,STARLINK-4518,PAYLOAD,2024-06-29 15:41:36,15.08824927,0.0001583,53.2178,318.5934,104.1925,255.9244,-9.1133e-05,-1.737e-05,0.0,0 STARLINK-4518,1 53550U 22101Z   24181.65389273 -.00001737  00000-0 -91133-4 0  9994,2 53550  53.2178 318.5934 0001583 104.1925 255.9244 15.08824927103009,6917.926,95.439,540.887,538.696,0.0
53550.0,STARLINK-4518,PAYLOAD,2024-06-30 09:10:50,15.08833104,0.0001516,53.2194,315.3226,109.6175,250.4981,2.6242e-05,1.3e-06,0.0,0 STARLINK-4518,1 53550U 22101Z   24182.38252780  .00000130  00000-0  26242-4 0  9990,2 53550  53.2194 315.3226 0001516 109.6175 250.4981 15.08833104103116,6917.901,95.438,540.815,538.718,0.0
53550.0,STARLINK-4518,PAYLOAD,2024-06-30 13:57:00,15.08829218,0.0001431,53.2182,314.4255,112.9851,247.1292,-0.00013018,-2.359e-05,0.0,0 STARLINK-4518,1 53550U 22101Z   24182.58125605 -.00002359  00000-0 -13018-3 0  9990,2 53550  53.2182 314.4255 0001431 112.9851 247.1292 15.08829218103804,6917.913,95.438,540.768,538.788,0.0
53550.0,STARLINK-4518,PAYLOAD,2024-06-30 18:43:10,15.08829361,0.0001228,53.2189,313.5372,103.3567,256.7562,-0.00017435,-3.061e-05,0.0,0 STARLINK-4518,1 53550U 22101Z   24182.77997956 -.00003061  00000-0 -17435-3 0  9995,2 53550  53.2189 313.5372 0001228 103.3567 256.7562 15.08829361103178,6917.913,95.438,540.627,538.928,0.0
53550.0,STARLINK-4518,PAYLOAD,2024-07-01 12:12:23,15.0883054,0.000109,53.2183,310.2683,98.4077,261.7039,0.00029105,4.346e-05,0.0,0 STARLINK-4518,1 53550U 22101Z   24183.50860912  .00004346  00000-0  29105-3 0  9990,2 53550  53.2183 310.2683 0001090  98.4077 261.7039 15.08830540103286,6917.909,95.438,540.528,539.02,0.0
53550.0,STARLINK-4518,PAYLOAD,2024-07-01 15:23:09,15.08845022,0.0001126,53.2177,309.6744,109.7811,250.3302,0.00042002,6.404e-05,0.0,0 STARLINK-4518,1 53550U 22101Z   24183.64107877  .00006404  00000-0  42002-3 0  9997,2 53550  53.2177 309.6744 0001126 109.7811 250.3302 15.08845022103964,6917.865,95.437,540.509,538.951,0.0
53550.0,STARLINK-4518,PAYLOAD,2024-07-02 00:55:26,15.08863506,0.0001072,53.2177,307.892,108.4418,251.669,0.00040654,6.192e-05,0.0,0 STARLINK-4518,1 53550U 22101Z   24184.03850547  .00006192  00000-0  40654-3 0  9995,2 53550  53.2177 307.8920 0001072 108.4418 251.6690 15.08863506103364,6917.809,95.436,540.415,538.932,0.0
53550.0,STARLINK-4518,PAYLOAD,2024-07-02 12:03:12,15.08817214,0.0001129,53.2165,305.8054,70.8478,289.2637,0.00011225,1.498e-05,0.0,0 STARLINK-4518,1 53550U 22101Z   24184.50222350  .00001498  00000-0  11225-3 0  9998,2 53550  53.2165 305.8054 0001129  70.8478 289.2637 15.08817214103439,6917.95,95.439,540.596,539.034,0.0
53550.0,STARLINK-4518,PAYLOAD,2024-07-02 15:13:57,15.08829258,0.0001036,53.2175,305.2181,95.3945,264.7166,0.00010221,1.339e-05,0.0,0 STARLINK-4518,1 53550U 22101Z   24184.63469417  .00001339  00000-0  10221-3 0  9998,2 53550  53.2175 305.2181 0001036  95.3945 264.7166 15.08829258104115,6917.913,95.438,540.495,539.062,0.0
53550.0,STARLINK-4518,PAYLOAD,2024-07-03 11:53:57,15.0884525,0.0001091,53.2174,301.3511,96.8597,263.252,-0.00015879,-2.814e-05,0.0,0 STARLINK-4518,1 53550U 22101Z   24185.49580525 -.00002814  00000-0 -15879-3 0  9992,2 53550  53.2174 301.3511 0001091  96.8597 263.2520 15.08845250103586,6917.864,95.437,540.484,538.975,0.0
53550.0,STARLINK-4518,PAYLOAD,2024-07-03 15:04:43,15.08842051,0.0001045,53.2173,300.7554,88.4933,271.6178,-0.00016668,-2.94e-05,0.0,0 STARLINK-4518,1 53550U 22101Z   24185.62828698 -.00002940  00000-0 -16668-3 0  9990,2 53550  53.2173 300.7554 0001045  88.4933 271.6178 15.08842051104269,6917.874,95.437,540.462,539.016,0.0
53550.0,STARLINK-4518,PAYLOAD,2024-07-04 13:20:08,15.08833133,0.0001175,53.216,296.5902,73.5296,286.5825,6.0065e-05,6.68e-06,0.0,0 STARLINK-4518,1 53550U 22101Z   24186.55565554  .00000668  00000-0  60065-4 0  9996,2 53550  53.2160 296.5902 0001175  73.5296 286.5825 15.08833133103742,6917.901,95.438,540.579,538.954,0.0
53550.0,STARLINK-4518,PAYLOAD,2024-07-04 14:55:31,15.08836999,0.0001088,53.216,296.2918,69.4713,290.6396,0.00012312,1.672e-05,0.0,0 STARLINK-4518,1 53550U 22101Z   24186.62189149  .00001672  00000-0  12312-3 0  9993,2 53550  53.2160 296.2918 0001088  69.4713 290.6396 15.08836999104414,6917.89,95.438,540.507,539.002,0.0
53550.0,STARLINK-4518,PAYLOAD,2024-07-05 00:27:49,15.08850713,0.0001128,53.2166,294.508,73.001,287.1106,0.00033739,5.087e-05,0.0,0 STARLINK-4518,1 53550U 22101Z   24187.01932621  .00005087  00000-0  33739-3 0  9998,2 53550  53.2166 294.5080 0001128  73.0010 287.1106 15.08850713103810,6917.848,95.437,540.493,538.932,0.0
